OBJECT_NAME,OBJECT_ID,EPOCH,MEAN_MOTION,ECCENTRICITY,INCLINATION,RA_OF_ASC_NODE,ARG_OF_PERICENTER,MEAN_ANOMALY,EPHEMERIS_TYPE,CLASSIFICATION_TYPE,NORAD_CAT_ID,ELEMENT_SET_NO,REV_AT_EPOCH,BSTAR,MEAN_MOTION_DOT,MEAN_MOTION_DDOT
IRIDIUM 135,2017-083A,2026-06-30T18:09:15.228000,14.34217219,.00020803,86.3973,316.3423,92.9977,267.1457,0,U,43070,999,44609,-.1591236E-4,-.25E-6,0
IRIDIUM 138,2017-083B,2026-06-30T10:23:27.197088,14.34217435,.00020544,86.3986,316.1751,87.3515,272.7916,0,U,43071,999,44603,-.7666342E-5,-.2E-7,0
IRIDIUM 116,2017-083C,2026-06-30T19:40:35.207616,14.34217427,.0002133,86.3972,316.3016,101.7327,258.4109,0,U,43072,999,44612,-.6689777E-5,.1E-7,0
IRIDIUM 130,2017-083D,2026-06-30T18:54:55.088640,14.34217631,.00020428,86.3984,316.5912,97.8733,262.2695,0,U,43073,999,44606,.20087108E-4,.76E-6,0
IRIDIUM 151,2017-083E,2026-06-30T09:56:03.192576,14.34217555,.00021003,86.3974,316.5293,94.1124,266.0312,0,U,43074,999,44603,-.2195247E-5,.14E-6,0
IRIDIUM 134,2017-083F,2026-06-30T10:50:51.085824,14.34217126,.00021546,86.3980,316.5213,94.9874,265.1568,0,U,43075,999,44600,.20161447E-4,.76E-6,0
IRIDIUM 137,2017-083G,2026-06-30T19:31:27.244992,14.34217710,.00025643,86.3981,316.4633,100.0224,260.1261,0,U,43076,999,44612,.267874E-5,.27E-6,0
IRIDIUM 141,2017-083H,2026-06-30T10:59:59.180640,14.34217519,.00020785,86.3972,316.4418,91.7499,268.3935,0,U,43077,999,44607,-.3586857E-5,.1E-6,0
IRIDIUM 153,2017-083J,2026-06-30T18:13:27.430464,14.34217703,.00021699,86.3968,284.7966,91.5380,268.6064,0,U,43078,999,44722,.6235571E-5,.37E-6,0
IRIDIUM 131,2017-083K,2026-06-30T19:04:03.206784,14.34218081,.00022299,86.3982,316.4879,93.0541,267.0910,0,U,43079,999,44605,.84333708E-4,.256E-5,0
IRIDIUM 144,2018-030A,2026-06-30T08:19:47.347392,14.34216975,.00022273,86.3965,284.8977,98.1908,261.9541,0,U,43249,999,43202,.22749425E-4,.83E-6,0
IRIDIUM 149,2018-030B,2026-06-30T16:51:15.473088,14.34217256,.00021813,86.3960,284.7161,93.6011,266.5435,0,U,43250,999,43209,-.16191174E-4,-.26E-6,0
IRIDIUM 157,2018-030C,2026-06-30T17:18:39.450816,14.34217641,.00022268,86.3964,284.7612,94.7847,265.3603,0,U,43251,999,43207,.43283933E-4,.141E-5,0
IRIDIUM 140,2018-030D,2026-06-30T19:26:31.439040,14.34217486,.00021883,86.3965,284.7369,95.5526,264.5919,0,U,43252,999,43214,.16881421E-4,.67E-6,0
IRIDIUM 145,2018-030E,2026-06-30T09:05:26.514240,14.34222181,.00022359,86.3964,284.8894,102.8844,257.2602,0,U,43253,999,43201,.7065569E-4,.218E-5,0
IRIDIUM 146,2018-030F,2026-06-30T17:00:23.469408,14.34217385,.00021487,86.3962,284.7640,98.1242,262.0198,0,U,43254,999,43207,-.7303682E-5,-.1E-7,0
IRIDIUM 148,2018-030G,2026-06-30T17:55:11.458560,14.34217499,.00022254,86.3963,284.7913,95.6210,264.5240,0,U,43255,999,43211,-.6222034E-5,.2E-7,0
IRIDIUM 142,2018-030H,2026-06-30T20:30:27.456480,14.34217413,.00021656,86.3959,284.6346,99.6242,260.5198,0,U,43256,999,43209,-.9670384E-5,-.7E-7,0
IRIDIUM 150,2018-030J,2026-06-30T18:04:19.448832,14.34217486,.0002162,86.3966,284.7936,95.4795,264.6648,0,U,43257,999,43210,.41577017E-4,.136E-5,0
IRIDIUM 143,2018-030K,2026-06-30T15:56:27.054528,14.34220036,.00022306,86.3969,284.9239,98.2327,261.9122,0,U,43258,999,43202,.80033802E-4,.244E-5,0
IRIDIUM 161,2018-047C,2026-06-30T23:10:47.881344,14.43279828,.00024654,86.4479,82.7103,80.4034,279.7445,0,U,43478,999,42712,.9399733E-4,.336E-5,0
IRIDIUM 152,2018-047D,2026-06-30T23:39:30.714624,14.34213342,.00021681,86.3952,82.5629,80.5092,279.6349,0,U,43479,999,42446,-.18688403E-3,-.503E-5,0
IRIDIUM 147,2018-047E,2026-06-30T20:27:42.034176,14.34219135,.00022137,86.3954,82.6242,87.1128,273.0321,0,U,43480,999,42444,.47538567E-4,.153E-5,0
IRIDIUM 110,2018-047F,2026-06-30T05:32:38.301504,14.34217781,.00024267,86.3957,82.9763,77.4573,282.6894,0,U,43481,999,42434,.12026534E-4,.53E-6,0
IRIDIUM 162,2018-047G,2026-06-30T23:01:43.330656,14.43281561,.00022383,86.4477,82.6037,83.0838,277.0618,0,U,43482,999,42711,.93415161E-4,.334E-5,0
IRIDIUM 160,2018-061A,2026-06-30T14:17:26.487744,14.34217480,.00021543,86.3949,51.1899,85.8986,274.2456,0,U,43569,999,41529,-.7802693E-5,-.2E-7,0
IRIDIUM 166,2018-061B,2026-06-30T14:53:58.437600,14.34217541,.00020507,86.3946,51.1297,88.8894,271.2537,0,U,43570,999,41532,-.3616321E-5,.1E-6,0
IRIDIUM 158,2018-061C,2026-06-30T14:08:18.465504,14.34217709,.0002117,86.3945,51.1530,84.1086,276.0351,0,U,43571,999,41528,.13840254E-4,.59E-6,0
IRIDIUM 165,2018-061D,2026-06-30T03:01:34.487040,14.34217541,.00021494,86.3951,51.3934,89.7429,270.4013,0,U,43572,999,41524,.10529863E-4,.49E-6,0
IRIDIUM 155,2018-061E,2026-06-30T03:47:14.453952,14.34217410,.00019587,86.3946,51.2482,84.9447,275.1973,0,U,43573,999,41521,-.14496841E-4,-.21E-6,0
